[
  {
    "name": "STARLINK-37820",
    "noradId": "69423",
    "line1": "1 69423U 26126D   26175.88869257  .00283472  00000+0  14873-2 0  9995",
    "line2": "2 69423  97.2835  36.3305 0001374  45.6188 314.5192 15.79997966  3968"
  },
  {
    "name": "STARLINK-37822",
    "noradId": "69424",
    "line1": "1 69424U 26126E   26176.52996166  .00328147  00000+0  21079-2 0  9993",
    "line2": "2 69424  97.2835  36.9879 0001411 119.6437 240.4969 15.75294947  4068"
  },
  {
    "name": "STARLINK-37836",
    "noradId": "69425",
    "line1": "1 69425U 26126F   26174.87494556  .00289300  00000+0  15142-2 0  9997",
    "line2": "2 69425  97.2840  35.2601 0001751 111.0998 249.0457 15.80036073  3803"
  },
  {
    "name": "STARLINK-37850",
    "noradId": "69426",
    "line1": "1 69426U 26126G   26176.58335648  .00035506  00000+0  19317-3 0  9990",
    "line2": "2 69426  97.2832  37.0665 0001449  91.1415 260.5116 15.79905331  4127"
  },
  {
    "name": "STARLINK-37823",
    "noradId": "69427",
    "line1": "1 69427U 26126H   26176.58335648 -.00069662  00000+0 -46950-3 0  9996",
    "line2": "2 69427  97.2849  37.0304 0001383  75.1600 191.5331 15.75213523  4078"
  },
  {
    "name": "STARLINK-37834",
    "noradId": "69428",
    "line1": "1 69428U 26126J   26176.54478020  .00275188  00000+0  17780-2 0  9993",
    "line2": "2 69428  97.2850  36.9678 0001167 109.2884 250.8508 15.75306836  4060"
  },
  {
    "name": "STARLINK-37857",
    "noradId": "69429",
    "line1": "1 69429U 26126K   26176.58335648 -.00002231  00000+0 -14100-4 0  9990",
    "line2": "2 69429  97.2845  37.0373 0001201  80.8495 201.8490 15.75177415  4076"
  },
  {
    "name": "STARLINK-37866",
    "noradId": "69430",
    "line1": "1 69430U 26126L   26175.88742945  .00346219  00000+0  18029-2 0  9993",
    "line2": "2 69430  97.2819  36.3311 0000636  72.3018 287.8320 15.79999055  4017"
  },
  {
    "name": "STARLINK-37555",
    "noradId": "69431",
    "line1": "1 69431U 26126M   26176.14037338 -.01753661  00000+0 -10401-1 0  9998",
    "line2": "2 69431  97.2831  36.5993 0017403 194.8600 165.2160 15.80823514  4050"
  },
  {
    "name": "STARLINK-37870",
    "noradId": "69432",
    "line1": "1 69432U 26126N   26176.14022744  .00709742  00000+0  33435-2 0  9995",
    "line2": "2 69432  97.2838  36.6006 0006048 238.5329 121.5348 15.81268558  4001"
  },
  {
    "name": "STARLINK-37872",
    "noradId": "69433",
    "line1": "1 69433U 26126P   26176.58335648  .00071490  00000+0  38812-3 0  9991",
    "line2": "2 69433  97.2832  37.0701 0001728  74.3343 284.4785 15.79816151  4071"
  },
  {
    "name": "STARLINK-37815",
    "noradId": "69434",
    "line1": "1 69434U 26126Q   26176.55254761  .00231202  00000+0  15044-2 0  9995",
    "line2": "2 69434  97.2835  36.9569 0000993 101.0006 259.1371 15.75266093  4061"
  },
  {
    "name": "STARLINK-37801",
    "noradId": "69435",
    "line1": "1 69435U 26126R   26176.58335648 -.00021533  00000+0 -14388-3 0  9990",
    "line2": "2 69435  97.2854  37.0263 0001527  91.1936 163.5074 15.75185488  4124"
  },
  {
    "name": "STARLINK-37800",
    "noradId": "69436",
    "line1": "1 69436U 26126S   26176.54055144  .00353262  00000+0  22600-2 0  9997",
    "line2": "2 69436  97.2850  36.9741 0001003  97.7218 262.4162 15.75319238  4066"
  },
  {
    "name": "STARLINK-37792",
    "noradId": "69437",
    "line1": "1 69437U 26126T   26176.51952645  .00360516  00000+0  18665-2 0  9993",
    "line2": "2 69437  97.2829  37.0024 0001282 114.1300 246.0102 15.80091354  4114"
  },
  {
    "name": "STARLINK-37783",
    "noradId": "69438",
    "line1": "1 69438U 26126U   26176.58250048  .00101802  00000+0  54725-3 0  9998",
    "line2": "2 69438  97.2836  37.0695 0001173  92.2480 267.8922 15.79945914  4121"
  },
  {
    "name": "STARLINK-37771",
    "noradId": "69439",
    "line1": "1 69439U 26126V   26176.55678413  .00174281  00000+0  11426-2 0  9997",
    "line2": "2 69439  97.2847  36.9513 0001315 102.8109 257.3303 15.75250843  4061"
  },
  {
    "name": "STARLINK-37747",
    "noradId": "69440",
    "line1": "1 69440U 26126W   26175.12742481  .07643341  00000+0  32526-1 0  9996",
    "line2": "2 69440  97.2836  35.5288 0008463 284.3118  75.7210 15.80846306  3847"
  },
  {
    "name": "STARLINK-37629",
    "noradId": "69443",
    "line1": "1 69443U 26127A   26176.58335648 -.00029565  00000+0 -18951-3 0  9993",
    "line2": "2 69443  53.1587 220.6875 0001179  69.6940  95.9704 15.75221633  3999"
  },
  {
    "name": "STARLINK-37509",
    "noradId": "69444",
    "line1": "1 69444U 26127B   26176.58335648 -.00008833  00000+0 -53549-4 0  9992",
    "line2": "2 69444  53.1594 220.6383 0001073  81.3620 108.1914 15.75224373  3995"
  },
  {
    "name": "STARLINK-37641",
    "noradId": "69445",
    "line1": "1 69445U 26127C   26176.53602663  .00126218  00000+0  81368-3 0  9997",
    "line2": "2 69445  53.1589 220.7104 0001178  77.6213 282.4940 15.75284852  2727"
  },
  {
    "name": "STARLINK-37522",
    "noradId": "69446",
    "line1": "1 69446U 26127D   26176.58335648 -.00027779  00000+0 -17773-3 0  9992",
    "line2": "2 69446  53.1595 220.6345 0001165  83.0848 108.3352 15.75226691  3992"
  },
  {
    "name": "STARLINK-37640",
    "noradId": "69447",
    "line1": "1 69447U 26127E   26176.52631342  .00154919  00000+0  77276-3 0  9996",
    "line2": "2 69447  53.1578 220.6445 0001410  87.5363 272.5822 15.80919872  2721"
  },
  {
    "name": "STARLINK-37572",
    "noradId": "69448",
    "line1": "1 69448U 26127F   26176.58335648 -.00032712  00000+0 -21019-3 0  9995",
    "line2": "2 69448  53.1599 220.5315 0001128  83.1675 157.8980 15.75223851  3993"
  },
  {
    "name": "STARLINK-37643",
    "noradId": "69449",
    "line1": "1 69449U 26127G   26176.58335648 -.00031929  00000+0 -20499-3 0  9996",
    "line2": "2 69449  53.1599 220.5846 0001183  84.7229 130.5866 15.75229197  3996"
  },
  {
    "name": "STARLINK-37601",
    "noradId": "69450",
    "line1": "1 69450U 26127H   26176.48165374  .00270391  00000+0  17039-2 0  9995",
    "line2": "2 69450  53.1598 221.0837 0001002  78.6382 281.4751 15.75350802  2711"
  },
  {
    "name": "STARLINK-37578",
    "noradId": "69451",
    "line1": "1 69451U 26127J   26176.58335648 -.00028484  00000+0 -18234-3 0  9995",
    "line2": "2 69451  53.1588 220.4221 0001178  69.6855 224.7451 15.75229876  3994"
  },
  {
    "name": "STARLINK-37577",
    "noradId": "69452",
    "line1": "1 69452U 26127K   26176.58212247 -.00832733  00000+0 -50732-2 0  9993",
    "line2": "2 69452  53.1584 220.2768 0000658  75.2104 284.8991 15.78933734  2732"
  },
  {
    "name": "STARLINK-37500",
    "noradId": "69453",
    "line1": "1 69453U 26127L   26176.52727794  .00122411  00000+0  79016-3 0  9996",
    "line2": "2 69453  53.1588 220.6504 0001030  84.8134 275.3004 15.75269347  2721"
  },
  {
    "name": "STARLINK-37575",
    "noradId": "69454",
    "line1": "1 69454U 26127M   26176.51546626 -.00398809  00000+0 -21494-2 0  9993",
    "line2": "2 69454  53.1581 220.5708 0001776  46.6913 313.4258 15.80485048  2727"
  }
]