OBJECT_NAME,OBJECT_ID,EPOCH,MEAN_MOTION,ECCENTRICITY,INCLINATION,RA_OF_ASC_NODE,ARG_OF_PERICENTER,MEAN_ANOMALY,EPHEMERIS_TYPE,CLASSIFICATION_TYPE,NORAD_CAT_ID,ELEMENT_SET_NO,REV_AT_EPOCH,BSTAR,MEAN_MOTION_DOT,MEAN_MOTION_DDOT
STARLINK-37820,2026-126D,2026-06-24T21:19:43.038048,15.79997966,.00013742,97.2835,36.3305,45.6188,314.5192,0,U,69423,999,396,.14872663E-2,.283472E-2,0
STARLINK-37822,2026-126E,2026-06-25T12:43:08.687424,15.75294947,.00014116,97.2835,36.9879,119.6437,240.4969,0,U,69424,999,406,.2107868E-2,.328147E-2,0
STARLINK-37836,2026-126F,2026-06-23T20:59:55.296384,15.80036073,.00017517,97.2840,35.2601,111.0998,249.0457,0,U,69425,999,380,.15141882E-2,.2893E-2,0
STARLINK-37850,2026-126G,2026-06-25T14:00:01.999872,15.79905331,.00014491,97.2832,37.0665,91.1415,260.5116,0,U,69426,999,412,.19317051E-3,.35506E-3,0
STARLINK-37823,2026-126H,2026-06-25T14:00:01.999872,15.75213523,.00013839,97.2849,37.0304,75.1600,191.5331,0,U,69427,999,407,-.46950111E-3,-.69662E-3,0
STARLINK-37834,2026-126J,2026-06-25T13:04:29.009280,15.75306836,.00011678,97.2850,36.9678,109.2884,250.8508,0,U,69428,999,406,.1778023E-2,.275188E-2,0
STARLINK-37857,2026-126K,2026-06-25T14:00:01.999872,15.75177415,.0001201,97.2845,37.0373,80.8495,201.8490,0,U,69429,999,407,-.14100277E-4,-.2231E-4,0
STARLINK-37866,2026-126L,2026-06-24T21:17:53.904480,15.79999055,.00006364,97.2819,36.3311,72.3018,287.8320,0,U,69430,999,401,.18029249E-2,.346219E-2,0
STARLINK-37555,2026-126M,2026-06-25T03:22:08.260032,15.80823514,.00174031,97.2831,36.5993,194.8600,165.2160,0,U,69431,999,405,-.1040122E-1,-.1753661E-1,0
STARLINK-37870,2026-126N,2026-06-25T03:21:55.650816,15.81268558,.00060489,97.2838,36.6006,238.5329,121.5348,0,U,69432,999,400,.33435095E-2,.709742E-2,0
STARLINK-37872,2026-126P,2026-06-25T14:00:01.999872,15.79816151,.00017282,97.2832,37.0701,74.3343,284.4785,0,U,69433,999,407,.38812447E-3,.7149E-3,0
STARLINK-37815,2026-126Q,2026-06-25T13:15:40.113504,15.75266093,.00009931,97.2835,36.9569,101.0006,259.1371,0,U,69434,999,406,.15043997E-2,.231202E-2,0
STARLINK-37801,2026-126R,2026-06-25T14:00:01.999872,15.75185488,.00015273,97.2854,37.0263,91.1936,163.5074,0,U,69435,999,412,-.14388209E-3,-.21533E-3,0
STARLINK-37800,2026-126S,2026-06-25T12:58:23.644416,15.75319238,.00010039,97.2850,36.9741,97.7218,262.4162,0,U,69436,999,406,.22599637E-2,.353262E-2,0
STARLINK-37792,2026-126T,2026-06-25T12:28:07.085280,15.80091354,.00012822,97.2829,37.0024,114.1300,246.0102,0,U,69437,999,411,.18664984E-2,.360516E-2,0
STARLINK-37783,2026-126U,2026-06-25T13:58:48.041472,15.79945914,.0001173,97.2836,37.0695,92.2480,267.8922,0,U,69438,999,412,.54724566E-3,.101802E-2,0
STARLINK-37771,2026-126V,2026-06-25T13:21:46.148832,15.75250843,.00013157,97.2847,36.9513,102.8109,257.3303,0,U,69439,999,406,.11426338E-2,.174281E-2,0
STARLINK-37747,2026-126W,2026-06-24T03:03:29.503584,15.80846306,.00084633,97.2836,35.5288,284.3118,75.7210,0,U,69440,999,384,.32525731E-1,.7643341E-1,0
STARLINK-37629,2026-127A,2026-06-25T14:00:01.999872,15.75221633,.00011792,53.1587,220.6875,69.6940,95.9704,0,U,69443,999,399,-.18950991E-3,-.29565E-3,0
STARLINK-37509,2026-127B,2026-06-25T14:00:01.999872,15.75224373,.00010733,53.1594,220.6383,81.3620,108.1914,0,U,69444,999,399,-.53548709E-4,-.8833E-4,0
STARLINK-37641,2026-127C,2026-06-25T12:51:52.700832,15.75284852,.00011781,53.1589,220.7104,77.6213,282.4940,0,U,69445,999,272,.81368443E-3,.126218E-2,0
STARLINK-37522,2026-127D,2026-06-25T14:00:01.999872,15.75226691,.00011656,53.1595,220.6345,83.0848,108.3352,0,U,69446,999,399,-.1777287E-3,-.27779E-3,0
STARLINK-37640,2026-127E,2026-06-25T12:37:53.479488,15.80919872,.00014101,53.1578,220.6445,87.5363,272.5822,0,U,69447,999,272,.77275811E-3,.154919E-2,0
STARLINK-37572,2026-127F,2026-06-25T14:00:01.999872,15.75223851,.00011287,53.1599,220.5315,83.1675,157.8980,0,U,69448,999,399,-.21018617E-3,-.32712E-3,0
STARLINK-37643,2026-127G,2026-06-25T14:00:01.999872,15.75229197,.00011833,53.1599,220.5846,84.7229,130.5866,0,U,69449,999,399,-.20498736E-3,-.31929E-3,0
STARLINK-37601,2026-127H,2026-06-25T11:33:34.883136,15.75350802,.00010029,53.1598,221.0837,78.6382,281.4751,0,U,69450,999,271,.17039274E-2,.270391E-2,0
STARLINK-37578,2026-127J,2026-06-25T14:00:01.999872,15.75229876,.00011781,53.1588,220.4221,69.6855,224.7451,0,U,69451,999,399,-.18234048E-3,-.28484E-3,0
STARLINK-37577,2026-127K,2026-06-25T13:58:15.381408,15.78933734,.00006586,53.1584,220.2768,75.2104,284.8991,0,U,69452,999,273,-.50731525E-2,-.832733E-2,0
STARLINK-37500,2026-127L,2026-06-25T12:39:16.814016,15.75269347,.000103,53.1588,220.6504,84.8134,275.3004,0,U,69453,999,272,.79015738E-3,.122411E-2,0
STARLINK-37575,2026-127M,2026-06-25T12:22:16.284864,15.80485048,.00017762,53.1581,220.5708,46.6913,313.4258,0,U,69454,999,272,-.21494149E-2,-.398809E-2,0
